[{"OBJECT_NAME":"YAOGAN-43 01D","OBJECT_ID":"2024-148D","EPOCH":"2026-03-09T10:27:16.254720","MEAN_MOTION":15.28369377,"ECCENTRICITY":0.00025569,"INCLINATION":35.001,"RA_OF_ASC_NODE":61.7102,"ARG_OF_PERICENTER":326.2473,"MEAN_ANOMALY":33.808,"EPHEMERIS_TYPE":0,"CLASSIFICATION_TYPE":"U","NORAD_CAT_ID":60461,"ELEMENT_SET_NO":999,"REV_AT_EPOCH":8700,"BSTAR":0.00037765912,"MEAN_MOTION_DOT":0.00010676,"MEAN_MOTION_DDOT":0},{"OBJECT_NAME":"STARLINK-35239","OBJECT_ID":"2025-210B","EPOCH":"2026-03-09T22:36:35.624736","MEAN_MOTION":15.30193892,"ECCENTRICITY":0.00010487,"INCLINATION":53.1574,"RA_OF_ASC_NODE":305.632,"ARG_OF_PERICENTER":78.665,"MEAN_ANOMALY":281.4469,"EPHEMERIS_TYPE":0,"CLASSIFICATION_TYPE":"U","NORAD_CAT_ID":65623,"ELEMENT_SET_NO":999,"REV_AT_EPOCH":2777,"BSTAR":0.00080691322,"MEAN_MOTION_DOT":0.00023611,"MEAN_MOTION_DDOT":0}]
